SAUDISAT 1C (SO-50)     
1 27607U 02058C   26168.49245842  .00000788  00000+0  11042-3 0  9991
2 27607  64.5510 128.0407 0075265 262.4185  96.8368 14.83047547264500
SAUDISAT 2              
1 28371U 04025F   26168.50978329  .00000186  00000+0  52562-4 0  9996
2 28371  98.5508 168.5000 0023578 297.2213  62.6582 14.56684071165798
SAUDISAT 3              
1 31118U 07012B   26168.80270562  .00000202  00000+0  40881-4 0  9995
2 31118  98.1456 119.2037 0013669 221.7301 138.2864 14.71425971 27836
PISAT                   
1 41784U 16059B   26168.48459062  .00000656  00000+0  11936-3 0  9995
2 41784  97.8179 168.9246 0028407 201.7782 158.2218 14.68983786519788
FLYING LAPTOP           
1 42831U 17042G   26168.85210081  .00003020  00000+0  23924-3 0  9997
2 42831  97.4687 324.3590 0019585 119.4081 240.9102 15.01150181486558
SALSAT                  
1 46495U 20068K   26168.53797512  .00006219  00000+0  21821-3 0  9990
2 46495  97.8847 171.6239 0008040 306.6544  53.3955 15.29803905315418
